[
    {
        "Altitude(m)": 607910.9903403006,
        "Argument of Periapsis(deg)": 0.0,
        "Eccentricity": 0.0,
        "Inclination(deg)": 60.0,
        "Latitude(deg)": -14.292838806077683,
        "Longitude(deg)": 68.4426646658231,
        "Mean Anomaly(deg)": -163.6364,
        "RAAN(deg)": 340.00000000000006,
        "Satellite Name": "Test1 1508",
        "Satellite Number": 1508,
        "Semi-Major Axis(m)": 6980739.136638005,
        "Time(s)": 0
    },
    {
        "Altitude(m)": 608060.2232355884,
        "Argument of Periapsis(deg)": 0.00010418945913296404,
        "Eccentricity": 0.0,
        "Inclination(deg)": 60.0,
        "Latitude(deg)": -14.826499872275024,
        "Longitude(deg)": 68.73127463586506,
        "Mean Anomaly(deg)": -163.01629385453816,
        "RAAN(deg)": 339.99957995086027,
        "Satellite Name": "Test1 1508",
        "Satellite Number": 1508,
        "Semi-Major Axis(m)": 6980739.136638005,
        "Time(s)": 10
    }
]